[{"OBJECT_NAME":"STARLINK-2166","OBJECT_ID":"2021-041F","EPOCH":"2026-03-09T12:57:50.425344","MEAN_MOTION":15.30192658,"ECCENTRICITY":0.00013094,"INCLINATION":53.1605,"RA_OF_ASC_NODE":127.4061,"ARG_OF_PERICENTER":94.8263,"MEAN_ANOMALY":265.2887,"EPHEMERIS_TYPE":0,"CLASSIFICATION_TYPE":"U","NORAD_CAT_ID":48558,"ELEMENT_SET_NO":999,"REV_AT_EPOCH":26439,"BSTAR":8.4270474e-5,"MEAN_MOTION_DOT":2.137e-5,"MEAN_MOTION_DDOT":0},{"OBJECT_NAME":"CERISE","OBJECT_ID":"1995-033B","EPOCH":"2026-03-09T23:11:27.589056","MEAN_MOTION":15.32047731,"ECCENTRICITY":0.00057118,"INCLINATION":98.325,"RA_OF_ASC_NODE":273.5192,"ARG_OF_PERICENTER":211.8754,"MEAN_ANOMALY":148.214,"EPHEMERIS_TYPE":0,"CLASSIFICATION_TYPE":"U","NORAD_CAT_ID":23606,"ELEMENT_SET_NO":999,"REV_AT_EPOCH":66468,"BSTAR":0.00062940675,"MEAN_MOTION_DOT":0.00019422,"MEAN_MOTION_DDOT":0}]
